OBJECT_NAME,OBJECT_ID,EPOCH,MEAN_MOTION,ECCENTRICITY,INCLINATION,RA_OF_ASC_NODE,ARG_OF_PERICENTER,MEAN_ANOMALY,EPHEMERIS_TYPE,CLASSIFICATION_TYPE,NORAD_CAT_ID,ELEMENT_SET_NO,REV_AT_EPOCH,BSTAR,MEAN_MOTION_DOT,MEAN_MOTION_DDOT
NUVIEW ALPHA,2024-252B,2026-06-13T11:02:51.049248,1.00271858,.0000875,0.0581,35.6992,12.4794,296.2311,0,U,62455,999,378,0,-.204E-5,0
AGILA,2024-252C,2026-06-13T13:52:23.830176,1.00271266,.00007633,0.0612,128.3644,352.5153,141.2573,0,U,62456,999,512,0,-.17E-5,0
NUVIEW BRAVO,2024-252D,2026-06-13T12:45:27.368064,1.00270624,.0001797,0.0680,151.1941,329.9869,248.9161,0,U,62457,999,375,0,-.203E-5,0
THURAYA-4,2025-001A,2026-06-12T23:40:33.242304,1.00272431,.00002211,0.0265,64.4922,186.9029,49.3681,0,U,62483,999,413,0,.152E-5,0
TJS-14,2025-017A,2026-06-13T14:57:07.618176,1.00272742,.00009545,0.7911,295.3634,289.4855,279.7373,0,U,62804,999,523,0,.127E-5,0
SPAINSAT NG I,2025-021A,2026-06-12T23:36:03.672576,1.00271206,.00003512,0.0138,328.9354,234.0638,81.3310,0,U,62852,999,394,0,.165E-5,0
QZS-6 (MICHIBIKI-6),2025-023A,2026-06-13T15:46:22.472256,1.00271621,.00017222,0.0451,66.1003,23.6917,139.2950,0,U,62876,999,491,0,-.222E-5,0
ZHONGXING-10R,2025-036A,2026-06-13T15:51:33.247008,1.00273263,.00034353,0.0332,247.7669,251.9917,110.6225,0,U,63075,999,492,0,-.341E-5,0
TIANLIAN 2-04,2025-062A,2026-06-13T15:53:42.064224,1.00271825,.00316567,4.3842,274.4923,10.2178,295.7389,0,U,63361,999,456,0,-.121E-5,0
TIANLIAN 2-05,2025-084A,2026-06-13T14:57:37.569600,1.00268895,.00031191,4.4608,279.8773,146.5025,80.3313,0,U,63662,999,434,0,.138E-5,0
CHINASAT 3B,2025-106A,2026-06-12T20:04:38.750304,1.00271191,.000284,0.0378,119.0144,2.9728,247.6578,0,U,64062,999,401,0,-.31E-6,0
SXM-10,2025-122A,2026-06-12T16:04:00.486912,1.00273166,.00016265,0.0190,24.3758,341.0707,20.3808,0,U,64290,999,363,0,-.3E-7,0
CHINASAT 9C,2025-132A,2026-06-13T15:18:09.025344,1.00270020,.00025633,0.0153,300.4880,140.4344,142.7751,0,U,64470,999,411,0,-.236E-5,0
MTG-S1,2025-143A,2026-06-13T14:50:53.216736,1.00271674,.00009795,0.6064,338.0997,12.6084,130.4708,0,U,64723,999,338,0,-.2E-6,0
DROR 1,2025-148A,2026-06-13T14:50:45.729312,1.00271641,.00025515,0.0252,51.7436,336.7444,92.1285,0,U,64784,999,326,0,-.23E-6,0
SHIYAN-29,2025-196A,2026-06-09T01:48:31.441824,1.00256520,.00109724,28.8121,18.6391,171.7452,188.2752,0,U,65486,999,279,0,-.259E-5,0
NUSANTARA LIMA (NUSANTARA 5),2025-205A,2026-06-13T02:09:38.669760,1.00267074,.0000068,0.0473,147.3321,279.1010,340.2484,0,U,65588,999,267,0,-.344E-5,0
TJS-20,2025-238A,2026-06-13T11:44:17.187648,1.00273483,.00045222,5.4783,299.5688,161.4260,39.2949,0,U,66142,999,229,0,.38E-6,0
CMS-03 (GSAT-7R),2025-249B,2026-06-13T14:48:32.482368,1.00270841,.00015349,0.0149,303.5507,134.9781,119.5270,0,U,66311,999,231,0,-.66E-6,0
VIASAT-3 F2,2025-261A,2026-06-12T14:32:05.402112,1.00268614,.00002314,0.0388,160.0568,183.0733,56.8437,0,U,66454,999,274,0,-.219E-5,0
SHIJIAN-28 (SJ-28),2025-277A,2026-06-13T13:42:32.276160,1.00264477,.00007824,4.5481,272.1939,348.8827,323.2210,0,U,66549,999,211,0,-.345E-5,0
TJS-22,2025-290A,2026-06-12T21:17:55.152096,1.00272909,.00019111,1.5387,286.5142,331.2466,29.3915,0,U,66990,999,198,0,.8E-7,0
TJS-23,2025-306A,2026-06-12T14:44:42.181440,1.00274271,.00053116,5.5981,297.5127,168.4891,191.6312,0,U,67226,999,184,0,.33E-6,0
FENGYUN 4C,2025-312A,2026-06-13T13:47:01.845024,1.00269389,.00006833,0.0393,142.3041,58.3445,40.9890,0,U,67246,999,174,0,-.312E-5,0
