NUVIEW ALPHA            
1 62455U 24252B   26164.46031307 -.00000204  00000+0  00000+0 0  9995
2 62455   0.0581  35.6992 0000875  12.4794 296.2311  1.00271858  3783
AGILA                   
1 62456U 24252C   26164.57805359 -.00000170  00000+0  00000+0 0  9996
2 62456   0.0612 128.3644 0000763 352.5153 141.2573  1.00271266  5128
NUVIEW BRAVO            
1 62457U 24252D   26164.53156676 -.00000203  00000+0  00000+0 0  9991
2 62457   0.0680 151.1941 0001797 329.9869 248.9161  1.00270624  3750
THURAYA-4               
1 62483U 25001A   26163.98649586  .00000152  00000+0  00000+0 0  9990
2 62483   0.0265  64.4922 0000221 186.9029  49.3681  1.00272431  4134
TJS-14                  
1 62804U 25017A   26164.62300484  .00000127  00000+0  00000+0 0  9999
2 62804   0.7911 295.3634 0000954 289.4855 279.7373  1.00272742  5234
SPAINSAT NG I           
1 62852U 25021A   26163.98337584  .00000165  00000+0  00000+0 0  9998
2 62852   0.0138 328.9354 0000351 234.0638  81.3310  1.00271206  3947
QZS-6 (MICHIBIKI-6)     
1 62876U 25023A   26164.65720454 -.00000222  00000+0  00000+0 0  9998
2 62876   0.0451  66.1003 0001722  23.6917 139.2950  1.00271621  4910
ZHONGXING-10R           
1 63075U 25036A   26164.66080147 -.00000341  00000+0  00000+0 0  9995
2 63075   0.0332 247.7669 0003435 251.9917 110.6225  1.00273263  4927
TIANLIAN 2-04           
1 63361U 25062A   26164.66229241 -.00000121  00000+0  00000+0 0  9998
2 63361   4.3842 274.4923 0031656  10.2178 295.7389  1.00271825  4567
TIANLIAN 2-05           
1 63662U 25084A   26164.62335150  .00000138  00000+0  00000+0 0  9996
2 63662   4.4608 279.8773 0003119 146.5025  80.3313  1.00268895  4345
CHINASAT 3B             
1 64062U 25106A   26163.83655961 -.00000031  00000+0  00000+0 0  9996
2 64062   0.0378 119.0144 0002840   2.9728 247.6578  1.00271191  4016
SXM-10                  
1 64290U 25122A   26163.66945008 -.00000003  00000+0  00000+0 0  9991
2 64290   0.0190  24.3758 0001626 341.0707  20.3808  1.00273166  3638
CHINASAT 9C             
1 64470U 25132A   26164.63760446 -.00000236  00000+0  00000+0 0  9999
2 64470   0.0153 300.4880 0002563 140.4344 142.7751  1.00270020  4116
MTG-S1                  
1 64723U 25143A   26164.61867149 -.00000020  00000+0  00000+0 0  9999
2 64723   0.6064 338.0997 0000979  12.6084 130.4708  1.00271674  3380
DROR 1                  
1 64784U 25148A   26164.61858483 -.00000023  00000+0  00000+0 0  9995
2 64784   0.0252  51.7436 0002551 336.7444  92.1285  1.00271641  3260
SHIYAN-29               
1 65486U 25196A   26160.07536391 -.00000259  00000+0  00000+0 0  9996
2 65486  28.8121  18.6391 0010972 171.7452 188.2752  1.00256520  2799
NUSANTARA LIMA (NUSANT*)
1 65588U 25205A   26164.09003090 -.00000344  00000+0  00000+0 0  9996
2 65588   0.0473 147.3321 0000068 279.1010 340.2484  1.00267074  2670
TJS-20                  
1 66142U 25238A   26164.48908782  .00000038  00000+0  00000+0 0  9993
2 66142   5.4783 299.5688 0004522 161.4260  39.2949  1.00273483  2295
CMS-03 (GSAT-7R)        
1 66311U 25249B   26164.61704262 -.00000066  00000+0  00000+0 0  9997
2 66311   0.0149 303.5507 0001534 134.9781 119.5270  1.00270841  2316
VIASAT-3 F2             
1 66454U 25261A   26163.60561808 -.00000219  00000+0  00000+0 0  9994
2 66454   0.0388 160.0568 0000231 183.0733  56.8437  1.00268614  2747
SHIJIAN-28 (SJ-28)      
1 66549U 25277A   26164.57120690 -.00000345  00000+0  00000+0 0  9993
2 66549   4.5481 272.1939 0000782 348.8827 323.2210  1.00264477  2112
TJS-22                  
1 66990U 25290A   26163.88744389  .00000008  00000+0  00000+0 0  9993
2 66990   1.5387 286.5142 0001911 331.2466  29.3915  1.00272909  1988
TJS-23                  
1 67226U 25306A   26163.61437710  .00000033  00000+0  00000+0 0  9990
2 67226   5.5981 297.5127 0005311 168.4891 191.6312  1.00274271  1843
FENGYUN 4C              
1 67246U 25312A   26164.57432691 -.00000312  00000+0  00000+0 0  9999
2 67246   0.0393 142.3041 0000683  58.3445  40.9890  1.00269389  1743
